#cP2014  2  6  0  0  0.00000000      96 ORBIT IGb08 HLM  IGS
## 1778 345600.00000000   900.00000000 56694 0.0000000000000
+   32   G01G02G03G04G05G06G07G08G09G10G11G12G13G14G15G16G17
+        G18G19G20G21G22G23G24G25G26G27G28G29G30G31G32  0  0
+          0  0  0  0  0  0  0  0  0  0  0  0  0  0  0  0  0
+          0  0  0  0  0  0  0  0  0  0  0  0  0  0  0  0  0
+          0  0  0  0  0  0  0  0  0  0  0  0  0  0  0  0  0
++         2  2  2  2  2  2  2  3  3  2  2  2  2  2  2  2  2
++         2  2  2  2  2  2  2  2  2  2  2  2  0  3  2  0  0
++         0  0  0  0  0  0  0  0  0  0  0  0  0  0  0  0  0
++         0  0  0  0  0  0  0  0  0  0  0  0  0  0  0  0  0
++         0  0  0  0  0  0  0  0  0  0  0  0  0  0  0  0  0
%c G  cc GPS ccc cccc cccc cccc cccc ccccc ccccc ccccc ccccc
%c cc cc ccc ccc cccc cccc cccc cccc ccccc ccccc ccccc ccccc
%f  1.2500000  1.025000000  0.00000000000  0.000000000000000
%f  0.0000000  0.000000000  0.00000000000  0.000000000000000
%i    0    0    0    0      0      0      0      0         0
%i    0    0    0    0      0      0      0      0         0
/* FINAL ORBIT COMBINATION FROM WEIGHTED AVERAGE OF:        
/* cod emr esa gfz grg jpl mit ngs sio                      
/* REFERENCED TO IGS TIME (IGST) AND TO WEIGHTED MEAN POLE: 
/* PCV:IGS08_1771 OL/AL:FES2004  NONE     Y  ORB:CMB CLK:CMB
*  2014  2  6  9  0  0.00000000
PG01  18601.937011   6361.892088  17882.421497     -2.405301  6  6  4 112       
PG02 -14726.356139 -22437.452009    -34.701269    477.046668  5  6  5 161       
PG03  18239.258216   9620.172105 -17371.888391    322.137327  3  6  2 133       
PG04  -3027.674686 -22648.250428  13027.097926      5.361357  7  4  4 123       
PG05  -8095.959614 -15469.196281 -20015.643995   -389.651011  7  8  2 152       
PG06  10647.069361  13638.737731 -20200.762748    265.000837  5  3  3 120       
PG07  12121.154074  -8698.335290 -21893.209582    310.860047  8  5  5 128       
PG08   4595.465687 -18197.918528 -18380.684104     11.762778  9  6 10 165       
PG09   2667.261911 -19213.303185 -18599.995966    303.483343  9  6 11 152       
PG10   7154.688116 -24299.188631  -7553.199533   -113.141600  7  4  5 122       
PG11  22881.250685  10276.804643   8573.259306   -461.932220  5  8  6 122       
PG12 -16509.579541   1182.443114  20666.653363    184.744223  6  5  5 137       
PG13  23600.524342  -5748.936919 -11050.127468     32.420169  6  6  3 140       
PG14  -8519.780022  14049.904068  21049.947066    200.560556  4  7  5 103       
PG15 -24814.537256  -4732.815688  -8711.714455   -161.626308  6  8  5 145       
PG16   7027.426976  14882.781123 -20792.554125   -232.606441  8  9  6 146       
PG17   7004.058847 -14584.141488  21269.563801    -65.846538  6  7  4 120       
PG18 -16529.731149  18860.892985  -7782.821077    300.351331  5  5  5  87       
PG19  23962.520706   7814.425041  -9175.099774   -437.079677  8  8  7 159       
PG20  17745.913801  -4350.052084  19060.621726    159.308819  5  3  5  97       
PG21 -11614.015064  10517.979821 -20797.831742   -342.419348  6  6  4 127       
PG22 -10042.996570  24303.873175   3276.321456    211.554869  7  5  6 131       
PG23  26773.962041    -34.025585    794.434232      6.323367  7  8  4 151       
PG24 -19243.331340 -11021.792038  14670.570578    -22.831930  7  9  8 147       
PG25 -17833.569283  14197.371761  13471.048501     13.172968  7  5  6 135       
PG26 -15552.383016 -13119.504044 -17892.829253    173.057407  6  5  6 113       
PG27  13826.118132  12640.114721 -18844.455741    -17.719460  6  4  6 134       
PG28  12994.824377 -23050.844654   1542.529178    330.398523  4  5  5 137       
PG29 -24815.687435   5001.867470  -7925.378682    508.828942  6  7  6 144       
PG30  -5387.282922  23887.940959 -10172.083173 999999.999999
PG31   5320.466388  23561.978191  10842.189692    333.015354  5  6  7 140       
PG32  12396.031965   9408.303078  21603.240656   -490.241904  2  6  3 104       
*  2014  2  6  9 15  0.00000000
PG01  19549.785230   8068.648926  16108.087152     -2.403275  6  6  4 123       
PG02 -14429.381117 -22492.682800   2743.299040    477.048512  6  6  5 171       
PG03  16337.530006  10193.965659 -18902.708293    322.140744  3  5  1 137       
PG04  -1871.844247 -21411.234965  15139.439536      5.361404  7  4  3  97       
PG05  -7001.773624 -17405.638667 -18783.938131   -389.649844  8  8  3 149       
PG06   8312.907064  14021.820642 -20979.907282    265.014187  5  3  2 106       
PG07  13479.294409  -6582.010527 -21866.013559    310.864028  8  4  6 136       
PG08   5700.036272 -16259.293339 -19871.197868     11.761746  8  6 10 167       
PG09   3914.605650 -17507.241262 -20061.942983    303.486458  9  7 11 154       
PG10   7751.845452 -24758.843998  -4831.557939   -113.143569  7  3  5 122       
PG11  23328.637336  11159.016757   6053.610898   -461.935396  6  8  7 127       
PG12 -15414.782928   -979.446586  21522.494052    184.746357  6  5  4 144       
PG13  24685.653270  -5535.977668  -8465.054221     32.416725  6  7  2 147       
PG14 -10825.916967  13947.521587  20009.959902    200.557835  3  7  4 107       
PG15 -23719.101010  -5107.106281 -11185.124404   -161.628201  6  8  4 148       
PG16   5817.521394  16849.995003 -19599.334380   -232.605527  9  8  6 143       
PG17   9338.537451 -14557.735018  20339.566453    -65.849608  6  6  4 115       
PG18 -16365.483473  17713.197640 -10313.117253    300.352853  5  5  5  93       
PG19  22795.403335   7964.120663 -11671.376154   -437.081732  9  8  7 138       
PG20  16983.898723  -2184.629891  20094.558801    159.311462  5  2  5  94       
PG21 -13059.140073   8441.818949 -20927.273814   -342.421475  5  7  4 132       
PG22 -10462.177012  24319.240611    498.697830    211.557162  7  4  7 126       
PG23  26549.568034    223.815850   3596.120694      6.320242  8  8  4 155       
PG24 -19952.617216 -12415.590804  12450.499348    -22.832851  7  8  9 158       
PG25 -17251.202226  12616.846285  15631.617203     13.174718  7  4  6 130       
PG26 -13547.100598 -13142.246494 -19468.178370    173.047616  6  5  6 120       
PG27  11611.582936  12902.442958 -20115.335030    -17.720650  6  4  5 139       
PG28  13137.190672 -22904.277462  -1371.052602    330.401016  4  4  5 135       
PG29 -25574.471332   4786.317706  -5184.627015    508.831183  5  7  5 142       
PG30  -6013.472289  24686.135943  -7510.569428 999999.999999
PG31   4437.394426  22505.209720  13277.397884    333.015725  4  6  7 133       
PG32  11127.031486  11495.530910  21329.814289   -490.236201  2  6  2 111       
*  2014  2  6  9 30  0.00000000
PG01  20455.352272   9549.679658  14057.319315     -2.401255  6  6  4 129       
PG02 -13946.489304 -22321.290130   5475.679304    477.050545  6  6  4 170       
PG03  14321.846384  10901.589220 -20123.309727    322.145680  2  5    137       
PG04   -520.102044 -20050.743667  16983.133568      5.361599  7  4  4  97       
PG05  -6065.419465 -19250.128987 -17228.576687   -389.648259  9  8  4 154       
PG06   5930.286848  14533.872453 -21398.373430    265.027586  6  3  2 122       
PG07  14933.748787  -4564.885452 -21460.732068    310.867879  8  5  6 138       
PG08   6986.883296 -14259.285739 -21009.600049     11.761861  8  6  9 158       
PG09   5340.803849 -15762.250359 -21192.052315    303.489027  9  7 10 155       
PG10   8202.782280 -24958.954255  -2025.182233   -113.145033  6  3  4 121       
PG11  23577.797738  11851.176138   3429.715850   -461.938681  6  7  7 130       
PG12 -14411.065932  -3266.480284  22005.123289    184.748282  7  5  5 144       
PG13  25481.655044  -5376.329237  -5736.205136     32.413269  7  6  2 146       
PG14 -13000.443949  13962.710217  18630.487613    200.554960  2  6  5 115       
PG15 -22379.600307  -5576.928153 -13469.382755   -161.630124  6  8  4 150       
PG16   4785.483646  18744.531557 -18066.318862   -232.604228  9  8  6 141       
PG17  11550.710771 -14645.861333  19065.001671    -65.852582  6  6  4 118       
PG18 -16147.158991  16299.664849 -12659.098299    300.355302  6  5  6 105       
PG19  21369.185028   8185.217213 -13972.532413   -437.083912  9  7  7 145       
PG20  16289.864372    105.409380  20776.450920    159.314585  4  3  4  75       
PG21 -14590.419179   6443.823485 -20676.082731   -342.423278  5  7  4 128       
PG22 -10760.202752  24063.420680  -2287.567826    211.559472  6  3  7 123       
PG23  26030.586620    527.722107   6337.509974      6.317538  8  8  5 155       
PG24 -20572.236763 -13562.356347  10016.977211    -22.832986  8  8  9 153       
PG25 -16666.722337  10794.518744  17520.706096     13.176438  6  4  6 126       
PG26 -11391.396557 -13282.184840 -20728.641882    173.037822  7  5  6 112       
PG27   9290.290541  13296.328659 -21040.437871    -17.721884  5  4  4 140       
PG28  13144.987017 -22466.035099  -4260.651598    330.403906  4  4  6 144       
PG29 -26028.244706   4588.289874  -2354.330614    508.833769  5  6  5 141       
PG30  -6472.701527  25233.322300  -4718.850700 999999.999999
PG31   3346.773389  21284.722871  15482.674148    333.015822  4  5  7 129       
PG32   9991.518787  13594.516150  20693.583836   -490.230884  3  6  2 115       
EOF
